{
  "type": "FeatureCollection",
  "features": [
    {
      "type": "Feature",
      "properties": {
        "norad_id": 43262,
        "name": "GAOFEN-1 04",
        "group": "resource",
        "lat": 13.72391059067221,
        "lon": 48.22380389662304,
        "alt_km": 641.1367699282591,
        "timestamp": "2025-12-18T08:58:43.049263+00:00",
        "meta_object_name": "GAOFEN-1 04",
        "meta_object_id": "2018-031D",
        "meta_epoch": "2025-12-17T23:09:25.460064",
        "meta_mean_motion": 14.76460388,
        "meta_eccentricity": 8.74e-05,
        "meta_inclination": 98.0808,
        "meta_ra_of_asc_node": 49.8028,
        "meta_arg_of_pericenter": 59.3636,
        "meta_mean_anomaly": 300.766,
        "meta_ephemeris_type": 0,
        "meta_classification_type": "U",
        "meta_norad_cat_id": 43262,
        "meta_element_set_no": 999,
        "meta_rev_at_epoch": 41594,
        "meta_bstar": 9.2110239e-05,
        "meta_mean_motion_dot": 5.89e-06,
        "meta_mean_motion_ddot": 0,
        "tle_line1": "1 43262U 18031D   25351.96487801  .00000589  00000+0  92110-4 0  9997",
        "tle_line2": "2 43262  98.0808  49.8028 0000874  59.3636 300.7660 14.76460388415946"
      },
      "geometry": {
        "type": "Point",
        "coordinates": [
          48.22380389662304,
          13.72391059067221
        ]
      }
    },
    {
      "type": "Feature",
      "properties": {
        "norad_id": 43437,
        "name": "SENTINEL-3B",
        "group": "resource",
        "lat": -71.65960105578634,
        "lon": -149.77482965222498,
        "alt_km": 811.0232440255295,
        "timestamp": "2025-12-18T08:58:43.049274+00:00",
        "meta_object_name": "SENTINEL-3B",
        "meta_object_id": "2018-039A",
        "meta_epoch": "2025-12-17T18:19:41.265120",
        "meta_mean_motion": 14.26735912,
        "meta_eccentricity": 0.00016261,
        "meta_inclination": 98.6263,
        "meta_ra_of_asc_node": 56.8769,
        "meta_arg_of_pericenter": 96.5955,
        "meta_mean_anomaly": 263.5411,
        "meta_ephemeris_type": 0,
        "meta_classification_type": "U",
        "meta_norad_cat_id": 43437,
        "meta_element_set_no": 999,
        "meta_rev_at_epoch": 39825,
        "meta_bstar": 6.7233445e-05,
        "meta_mean_motion_dot": 1.19e-06,
        "meta_mean_motion_ddot": 0,
        "tle_line1": "1 43437U 18039A   25351.76367205  .00000119  00000+0  67233-4 0  9999",
        "tle_line2": "2 43437  98.6263  56.8769 0001626  96.5955 263.5411 14.26735912398251"
      },
      "geometry": {
        "type": "Point",
        "coordinates": [
          -149.77482965222498,
          -71.65960105578634
        ]
      }
    },
    {
      "type": "Feature",
      "properties": {
        "norad_id": 43461,
        "name": "GAOFEN-5 01",
        "group": "resource",
        "lat": -24.7273013783009,
        "lon": 131.52223748183803,
        "alt_km": 697.5355920727134,
        "timestamp": "2025-12-18T08:58:43.049284+00:00",
        "meta_object_name": "GAOFEN-5 01",
        "meta_object_id": "2018-043A",
        "meta_epoch": "2025-12-17T18:53:18.600576",
        "meta_mean_motion": 14.60415253,
        "meta_eccentricity": 6.536e-05,
        "meta_inclination": 98.4331,
        "meta_ra_of_asc_node": 314.8425,
        "meta_arg_of_pericenter": 314.2673,
        "meta_mean_anomaly": 45.8473,
        "meta_ephemeris_type": 0,
        "meta_classification_type": "U",
        "meta_norad_cat_id": 43461,
        "meta_element_set_no": 999,
        "meta_rev_at_epoch": 40521,
        "meta_bstar": 8.6212059e-05,
        "meta_mean_motion_dot": 3.69e-06,
        "meta_mean_motion_ddot": 0,
        "tle_line1": "1 43461U 18043A   25351.78702084  .00000369  00000+0  86212-4 0  9996",
        "tle_line2": "2 43461  98.4331 314.8425 0000653 314.2673  45.8473 14.60415253405219"
      },
      "geometry": {
        "type": "Point",
        "coordinates": [
          131.52223748183803,
          -24.7273013783009
        ]
      }
    },
    {
      "type": "Feature",
      "properties": {
        "norad_id": 43484,
        "name": "GAOFEN-6",
        "group": "resource",
        "lat": 12.272243551888725,
        "lon": -121.83860710870914,
        "alt_km": 646.0742955327833,
        "timestamp": "2025-12-18T08:58:43.049294+00:00",
        "meta_object_name": "GAOFEN-6",
        "meta_object_id": "2018-048A",
        "meta_epoch": "2025-12-17T22:27:55.139040",
        "meta_mean_motion": 14.76574362,
        "meta_eccentricity": 0.00129929,
        "meta_inclination": 97.8031,
        "meta_ra_of_asc_node": 56.0287,
        "meta_arg_of_pericenter": 48.344,
        "meta_mean_anomaly": 311.888,
        "meta_ephemeris_type": 0,
        "meta_classification_type": "U",
        "meta_norad_cat_id": 43484,
        "meta_element_set_no": 999,
        "meta_rev_at_epoch": 40664,
        "meta_bstar": 5.9793256e-05,
        "meta_mean_motion_dot": 3.68e-06,
        "meta_mean_motion_ddot": 0,
        "tle_line1": "1 43484U 18048A   25351.93605485  .00000368  00000+0  59793-4 0  9993",
        "tle_line2": "2 43484  97.8031  56.0287 0012992  48.3440 311.8880 14.76574362406641"
      },
      "geometry": {
        "type": "Point",
        "coordinates": [
          -121.83860710870914,
          12.272243551888725
        ]
      }
    },
    {
      "type": "Feature",
      "properties": {
        "norad_id": 43585,
        "name": "GAOFEN-11 01",
        "group": "resource",
        "lat": 6.57816455162562,
        "lon": 54.43169119365115,
        "alt_km": 420.4190118190236,
        "timestamp": "2025-12-18T08:58:43.049304+00:00",
        "meta_object_name": "GAOFEN-11 01",
        "meta_object_id": "2018-063A",
        "meta_epoch": "2025-12-17T23:38:59.432640",
        "meta_mean_motion": 15.49362625,
        "meta_eccentricity": 0.00040353,
        "meta_inclination": 97.1562,
        "meta_ra_of_asc_node": 54.8763,
        "meta_arg_of_pericenter": 286.2168,
        "meta_mean_anomaly": 73.864,
        "meta_ephemeris_type": 0,
        "meta_classification_type": "U",
        "meta_norad_cat_id": 43585,
        "meta_element_set_no": 999,
        "meta_rev_at_epoch": 41223,
        "meta_bstar": 0.00019137757,
        "meta_mean_motion_dot": 0.000104,
        "meta_mean_motion_ddot": 0,
        "tle_line1": "1 43585U 18063A   25351.98541010  .00010400  00000+0  19138-3 0  9996",
        "tle_line2": "2 43585  97.1562  54.8763 0004035 286.2168  73.8640 15.49362625412238"
      },
      "geometry": {
        "type": "Point",
        "coordinates": [
          54.43169119365115,
          6.57816455162562
        ]
      }
    },
    {
      "type": "Feature",
      "properties": {
        "norad_id": 43613,
        "name": "ICESAT-2",
        "group": "resource",
        "lat": 35.47376655716035,
        "lon": -119.17302612972973,
        "alt_km": 478.79386567414076,
        "timestamp": "2025-12-18T08:58:43.049314+00:00",
        "meta_object_name": "ICESAT-2",
        "meta_object_id": "2018-070A",
        "meta_epoch": "2025-12-17T21:49:24.175776",
        "meta_mean_motion": 15.28281091,
        "meta_eccentricity": 0.00027717,
        "meta_inclination": 92.0052,
        "meta_ra_of_asc_node": 242.1322,
        "meta_arg_of_pericenter": 130.1502,
        "meta_mean_anomaly": 229.999,
        "meta_ephemeris_type": 0,
        "meta_classification_type": "U",
        "meta_norad_cat_id": 43613,
        "meta_element_set_no": 999,
        "meta_rev_at_epoch": 40477,
        "meta_bstar": 0.00037799007,
        "meta_mean_motion_dot": 0.00010412,
        "meta_mean_motion_ddot": 0,
        "tle_line1": "1 43613U 18070A   25351.90930759  .00010412  00000+0  37799-3 0  9996",
        "tle_line2": "2 43613  92.0052 242.1322 0002771 130.1502 229.9990 15.28281091404771"
      },
      "geometry": {
        "type": "Point",
        "coordinates": [
          -119.17302612972973,
          35.47376655716035
        ]
      }
    },
    {
      "type": "Feature",
      "properties": {
        "norad_id": 43719,
        "name": "HYSIS",
        "group": "resource",
        "lat": -63.83072515394258,
        "lon": -141.32711569761284,
        "alt_km": 641.5579352934928,
        "timestamp": "2025-12-18T08:58:43.049324+00:00",
        "meta_object_name": "HYSIS",
        "meta_object_id": "2018-096A",
        "meta_epoch": "2025-12-17T23:45:13.552416",
        "meta_mean_motion": 14.78658145,
        "meta_eccentricity": 0.0001166,
        "meta_inclination": 98.0098,
        "meta_ra_of_asc_node": 54.942,
        "meta_arg_of_pericenter": 50.8058,
        "meta_mean_anomaly": 309.3256,
        "meta_ephemeris_type": 0,
        "meta_classification_type": "U",
        "meta_norad_cat_id": 43719,
        "meta_element_set_no": 999,
        "meta_rev_at_epoch": 38064,
        "meta_bstar": 9.0317072e-05,
        "meta_mean_motion_dot": 6.1e-06,
        "meta_mean_motion_ddot": 0,
        "tle_line1": "1 43719U 18096A   25351.98974019  .00000610  00000+0  90317-4 0  9991",
        "tle_line2": "2 43719  98.0098  54.9420 0001166  50.8058 309.3256 14.78658145380642"
      },
      "geometry": {
        "type": "Point",
        "coordinates": [
          -141.32711569761284,
          -63.83072515394258
        ]
      }
    }
  ]
}